[{"OBJECT_NAME":"STARLINK-5701","OBJECT_ID":"2023-015AQ","EPOCH":"2026-03-09T22:00:01.999584","MEAN_MOTION":15.12694755,"ECCENTRICITY":0.00012786,"INCLINATION":42.9995,"RA_OF_ASC_NODE":337.5289,"ARG_OF_PERICENTER":234.4918,"MEAN_ANOMALY":21.7272,"EPHEMERIS_TYPE":0,"CLASSIFICATION_TYPE":"U","NORAD_CAT_ID":55487,"ELEMENT_SET_NO":999,"REV_AT_EPOCH":573,"BSTAR":0.0027927684,"MEAN_MOTION_DOT":0.00049878,"MEAN_MOTION_DDOT":0},{"OBJECT_NAME":"ICEYE-X49","OBJECT_ID":"2024-247H","EPOCH":"2026-03-09T07:25:45.965856","MEAN_MOTION":15.11992896,"ECCENTRICITY":0.00021088,"INCLINATION":44.9974,"RA_OF_ASC_NODE":170.2236,"ARG_OF_PERICENTER":247.0457,"MEAN_ANOMALY":113.0198,"EPHEMERIS_TYPE":0,"CLASSIFICATION_TYPE":"U","NORAD_CAT_ID":62384,"ELEMENT_SET_NO":999,"REV_AT_EPOCH":6705,"BSTAR":0.0002452873,"MEAN_MOTION_DOT":4.029e-5,"MEAN_MOTION_DDOT":0}]
